PROGRESS-MS 33
1 68319U 26058A   26109.48996335  .00010082  00000+0  19194-3 0  9990
2 68319  51.6329 230.6068 0006631 325.6576  34.3983 15.48833250  3169
STARLINK-36987
1 68321U 26059A   26109.58335648 -.01849509  00000+0 -31297-1 0  9992
2 68321  53.1591 158.5574 0000832  92.5368 255.7286 15.54392075  5615
STARLINK-37088
1 68322U 26059B   26109.58335648 -.01828860  00000+0 -32704-1 0  9994
2 68322  53.1595 158.6118 0000990  80.6922 240.2765 15.52848186  5612
STARLINK-36983
1 68323U 26059C   26109.58335648  .00094853  00000+0  16961-2 0  9997
2 68323  53.1592 158.9230 0001143  27.3240 140.4180 15.49254733  5617
STARLINK-37164
1 68324U 26059D   26109.83335647 -.01088393  00000+0 -21208-1 0  9999
2 68324  53.1595 157.4980 0001253  68.9047 165.9490 15.49844533  5658
STARLINK-36309
1 68325U 26059E   26109.83335647 -.01880657  00000+0 -33381-1 0  9998
2 68325  53.1589 157.3276 0001153  82.8464 236.4474 15.53149895  5656
STARLINK-37206
1 68326U 26059F   26109.83335647 -.01574371  00000+0 -28442-1 0  9994
2 68326  53.1594 157.3664 0001478  95.1484 205.2403 15.52077341  5654
STARLINK-37199
1 68327U 26059G   26109.83335647  .00020019  00000+0  36743-3 0  9992
2 68327  53.1587 158.3084 0001027  55.2307 139.8927 15.49280890  5659
STARLINK-36245
1 68328U 26059H   26109.83335647 -.00630086  00000+0 -12096-1 0  9999
2 68328  53.1594 157.4524 0001634  84.0922 172.8550 15.49691269  5659
STARLINK-37204
1 68329U 26059J   26109.83335647  .00025587  00000+0  46710-3 0  9994
2 68329  53.1591 157.7233 0000964  70.2239  53.6469 15.49278766  5658
STARLINK-37001
1 68330U 26059K   26109.00002315  .00096558  00000+0  17243-2 0  9992
2 68330  53.1576 162.4112 0001106  89.8594  75.9341 15.49284813  5523
STARLINK-36932
1 68331U 26059L   26109.83335647 -.02204805  00000+0 -40883-1 0  9996
2 68331  53.1587 157.3461 0000588  41.4335 268.2216 15.51942910  5650
STARLINK-37205
1 68332U 26059M   26109.83335647 -.01967385  00000+0 -41280-1 0  9997
2 68332  53.1595 157.6951 0001336  58.5226  78.7832 15.48077938  5650
STARLINK-37180
1 68333U 26059N   26108.00004630  .00071742  00000+0  12882-2 0  9998
2 68333  53.1592 167.3041 0000985  64.1526 225.9322 15.49263587  5367
STARLINK-37191
1 68334U 26059P   26109.83335647 -.00052885  00000+0 -94894-3 0  9999
2 68334  53.1591 157.6870 0001141  87.3033  54.0169 15.49317792  5654
STARLINK-37217
1 68335U 26059Q   26109.83335647  .00028201  00000+0  51388-3 0  9994
2 68335  53.1589 157.7283 0001328  77.4572  43.1685 15.49275213  5659
