[{"OBJECT_NAME":"PROGRESS-MS 33","OBJECT_ID":"2026-058A","EPOCH":"2026-04-19T11:45:32.833440","MEAN_MOTION":15.4883325,"ECCENTRICITY":0.00066312,"INCLINATION":51.6329,"RA_OF_ASC_NODE":230.6068,"ARG_OF_PERICENTER":325.6576,"MEAN_ANOMALY":34.3983,"EPHEMERIS_TYPE":0,"CLASSIFICATION_TYPE":"U","NORAD_CAT_ID":68319,"ELEMENT_SET_NO":999,"REV_AT_EPOCH":316,"BSTAR":0.00019193879,"MEAN_MOTION_DOT":0.00010082,"MEAN_MOTION_DDOT":0},{"OBJECT_NAME":"STARLINK-36987","OBJECT_ID":"2026-059A","EPOCH":"2026-04-19T14:00:01.999872","MEAN_MOTION":15.54392075,"ECCENTRICITY":8.321e-5,"INCLINATION":53.1591,"RA_OF_ASC_NODE":158.5574,"ARG_OF_PERICENTER":92.5368,"MEAN_ANOMALY":255.7286,"EPHEMERIS_TYPE":0,"CLASSIFICATION_TYPE":"U","NORAD_CAT_ID":68321,"ELEMENT_SET_NO":999,"REV_AT_EPOCH":561,"BSTAR":-0.03129717,"MEAN_MOTION_DOT":-0.01849509,"MEAN_MOTION_DDOT":0},{"OBJECT_NAME":"STARLINK-37088","OBJECT_ID":"2026-059B","EPOCH":"2026-04-19T14:00:01.999872","MEAN_MOTION":15.52848186,"ECCENTRICITY":9.909e-5,"INCLINATION":53.1595,"RA_OF_ASC_NODE":158.6118,"ARG_OF_PERICENTER":80.6922,"MEAN_ANOMALY":240.2765,"EPHEMERIS_TYPE":0,"CLASSIFICATION_TYPE":"U","NORAD_CAT_ID":68322,"ELEMENT_SET_NO":999,"REV_AT_EPOCH":561,"BSTAR":-0.032703594,"MEAN_MOTION_DOT":-0.0182886,"MEAN_MOTION_DDOT":0},{"OBJECT_NAME":"STARLINK-36983","OBJECT_ID":"2026-059C","EPOCH":"2026-04-19T14:00:01.999872","MEAN_MOTION":15.49254733,"ECCENTRICITY":0.00011433,"INCLINATION":53.1592,"RA_OF_ASC_NODE":158.923,"ARG_OF_PERICENTER":27.324,"MEAN_ANOMALY":140.418,"EPHEMERIS_TYPE":0,"CLASSIFICATION_TYPE":"U","NORAD_CAT_ID":68323,"ELEMENT_SET_NO":999,"REV_AT_EPOCH":561,"BSTAR":0.0016961115,"MEAN_MOTION_DOT":0.00094853,"MEAN_MOTION_DDOT":0},{"OBJECT_NAME":"STARLINK-37164","OBJECT_ID":"2026-059D","EPOCH":"2026-04-19T20:00:01.999008","MEAN_MOTION":15.49844533,"ECCENTRICITY":0.0001253,"INCLINATION":53.1595,"RA_OF_ASC_NODE":157.498,"ARG_OF_PERICENTER":68.9047,"MEAN_ANOMALY":165.949,"EPHEMERIS_TYPE":0,"CLASSIFICATION_TYPE":"U","NORAD_CAT_ID":68324,"ELEMENT_SET_NO":999,"REV_AT_EPOCH":565,"BSTAR":-0.021208,"MEAN_MOTION_DOT":-0.01088393,"MEAN_MOTION_DDOT":0},{"OBJECT_NAME":"STARLINK-36309","OBJECT_ID":"2026-059E","EPOCH":"2026-04-19T20:00:01.999008","MEAN_MOTION":15.53149895,"ECCENTRICITY":0.0001153,"INCLINATION":53.1589,"RA_OF_ASC_NODE":157.3276,"ARG_OF_PERICENTER":82.8464,"MEAN_ANOMALY":236.4474,"EPHEMERIS_TYPE":0,"CLASSIFICATION_TYPE":"U","NORAD_CAT_ID":68325,"ELEMENT_SET_NO":999,"REV_AT_EPOCH":565,"BSTAR":-0.033381,"MEAN_MOTION_DOT":-0.01880657,"MEAN_MOTION_DDOT":0},{"OBJECT_NAME":"STARLINK-37206","OBJECT_ID":"2026-059F","EPOCH":"2026-04-19T20:00:01.999008","MEAN_MOTION":15.52077341,"ECCENTRICITY":0.0001478,"INCLINATION":53.1594,"RA_OF_ASC_NODE":157.3664,"ARG_OF_PERICENTER":95.1484,"MEAN_ANOMALY":205.2403,"EPHEMERIS_TYPE":0,"CLASSIFICATION_TYPE":"U","NORAD_CAT_ID":68326,"ELEMENT_SET_NO":999,"REV_AT_EPOCH":565,"BSTAR":-0.028442,"MEAN_MOTION_DOT":-0.01574371,"MEAN_MOTION_DDOT":0},{"OBJECT_NAME":"STARLINK-37199","OBJECT_ID":"2026-059G","EPOCH":"2026-04-19T20:00:01.999008","MEAN_MOTION":15.4928089,"ECCENTRICITY":0.0001027,"INCLINATION":53.1587,"RA_OF_ASC_NODE":158.3084,"ARG_OF_PERICENTER":55.2307,"MEAN_ANOMALY":139.8927,"EPHEMERIS_TYPE":0,"CLASSIFICATION_TYPE":"U","NORAD_CAT_ID":68327,"ELEMENT_SET_NO":999,"REV_AT_EPOCH":565,"BSTAR":0.00036743,"MEAN_MOTION_DOT":0.00020019,"MEAN_MOTION_DDOT":0},{"OBJECT_NAME":"STARLINK-36245","OBJECT_ID":"2026-059H","EPOCH":"2026-04-19T20:00:01.999008","MEAN_MOTION":15.49691269,"ECCENTRICITY":0.0001634,"INCLINATION":53.1594,"RA_OF_ASC_NODE":157.4524,"ARG_OF_PERICENTER":84.0922,"MEAN_ANOMALY":172.855,"EPHEMERIS_TYPE":0,"CLASSIFICATION_TYPE":"U","NORAD_CAT_ID":68328,"ELEMENT_SET_NO":999,"REV_AT_EPOCH":565,"BSTAR":-0.012096,"MEAN_MOTION_DOT":-0.00630086,"MEAN_MOTION_DDOT":0},{"OBJECT_NAME":"STARLINK-37204","OBJECT_ID":"2026-059J","EPOCH":"2026-04-19T20:00:01.999008","MEAN_MOTION":15.49278766,"ECCENTRICITY":9.64e-5,"INCLINATION":53.1591,"RA_OF_ASC_NODE":157.7233,"ARG_OF_PERICENTER":70.2239,"MEAN_ANOMALY":53.6469,"EPHEMERIS_TYPE":0,"CLASSIFICATION_TYPE":"U","NORAD_CAT_ID":68329,"ELEMENT_SET_NO":999,"REV_AT_EPOCH":565,"BSTAR":0.0004671,"MEAN_MOTION_DOT":0.00025587,"MEAN_MOTION_DDOT":0},{"OBJECT_NAME":"STARLINK-37001","OBJECT_ID":"2026-059K","EPOCH":"2026-04-19T00:00:02.000160","MEAN_MOTION":15.49284813,"ECCENTRICITY":0.00011063,"INCLINATION":53.1576,"RA_OF_ASC_NODE":162.4112,"ARG_OF_PERICENTER":89.8594,"MEAN_ANOMALY":75.9341,"EPHEMERIS_TYPE":0,"CLASSIFICATION_TYPE":"U","NORAD_CAT_ID":68330,"ELEMENT_SET_NO":999,"REV_AT_EPOCH":552,"BSTAR":0.001724256,"MEAN_MOTION_DOT":0.00096558,"MEAN_MOTION_DDOT":0},{"OBJECT_NAME":"STARLINK-36932","OBJECT_ID":"2026-059L","EPOCH":"2026-04-19T20:00:01.999008","MEAN_MOTION":15.5194291,"ECCENTRICITY":5.88e-5,"INCLINATION":53.1587,"RA_OF_ASC_NODE":157.3461,"ARG_OF_PERICENTER":41.4335,"MEAN_ANOMALY":268.2216,"EPHEMERIS_TYPE":0,"CLASSIFICATION_TYPE":"U","NORAD_CAT_ID":68331,"ELEMENT_SET_NO":999,"REV_AT_EPOCH":565,"BSTAR":-0.040883,"MEAN_MOTION_DOT":-0.02204805,"MEAN_MOTION_DDOT":0},{"OBJECT_NAME":"STARLINK-37205","OBJECT_ID":"2026-059M","EPOCH":"2026-04-19T20:00:01.999008","MEAN_MOTION":15.48077938,"ECCENTRICITY":0.0001336,"INCLINATION":53.1595,"RA_OF_ASC_NODE":157.6951,"ARG_OF_PERICENTER":58.5226,"MEAN_ANOMALY":78.7832,"EPHEMERIS_TYPE":0,"CLASSIFICATION_TYPE":"U","NORAD_CAT_ID":68332,"ELEMENT_SET_NO":999,"REV_AT_EPOCH":565,"BSTAR":-0.04128,"MEAN_MOTION_DOT":-0.01967385,"MEAN_MOTION_DDOT":0},{"OBJECT_NAME":"STARLINK-37180","OBJECT_ID":"2026-059N","EPOCH":"2026-04-18T00:00:04.000320","MEAN_MOTION":15.49263587,"ECCENTRICITY":9.854e-5,"INCLINATION":53.1592,"RA_OF_ASC_NODE":167.3041,"ARG_OF_PERICENTER":64.1526,"MEAN_ANOMALY":225.9322,"EPHEMERIS_TYPE":0,"CLASSIFICATION_TYPE":"U","NORAD_CAT_ID":68333,"ELEMENT_SET_NO":999,"REV_AT_EPOCH":536,"BSTAR":0.001288202,"MEAN_MOTION_DOT":0.00071742,"MEAN_MOTION_DDOT":0},{"OBJECT_NAME":"STARLINK-37191","OBJECT_ID":"2026-059P","EPOCH":"2026-04-19T20:00:01.999008","MEAN_MOTION":15.49317792,"ECCENTRICITY":0.0001141,"INCLINATION":53.1591,"RA_OF_ASC_NODE":157.687,"ARG_OF_PERICENTER":87.3033,"MEAN_ANOMALY":54.0169,"EPHEMERIS_TYPE":0,"CLASSIFICATION_TYPE":"U","NORAD_CAT_ID":68334,"ELEMENT_SET_NO":999,"REV_AT_EPOCH":565,"BSTAR":-0.00094894,"MEAN_MOTION_DOT":-0.00052885,"MEAN_MOTION_DDOT":0},{"OBJECT_NAME":"STARLINK-37217","OBJECT_ID":"2026-059Q","EPOCH":"2026-04-19T20:00:01.999008","MEAN_MOTION":15.49275213,"ECCENTRICITY":0.0001328,"INCLINATION":53.1589,"RA_OF_ASC_NODE":157.7283,"ARG_OF_PERICENTER":77.4572,"MEAN_ANOMALY":43.1685,"EPHEMERIS_TYPE":0,"CLASSIFICATION_TYPE":"U","NORAD_CAT_ID":68335,"ELEMENT_SET_NO":999,"REV_AT_EPOCH":565,"BSTAR":0.00051388,"MEAN_MOTION_DOT":0.00028201,"MEAN_MOTION_DDOT":0}]
